GPS-1
1 41328U 16007A   22282.19882795  .00000052  00000-0  00000-0 0  9994
2 41328  54.9292 142.9613 0062930 229.7482 129.7980  2.00565367 48823
GPS-2
1 43873U 18109A   22282.08148113  .00000051  00000-0  00000-0 0  9992
2 43873  55.1083 145.4094 0020888 188.1972 339.4748  2.00554910 28057
GPS-3
1 44506U 19056A   22282.43294921 -.00000106  00000-0  00000-0 0  9998
2 44506  55.7275  24.5217 0028939 181.8848 139.7147  2.00558484 23050
GPS-4
1 45854U 20041A   22282.56379384 -.00000011  00000-0  00000-0 0  9997
2 45854  55.6124  81.7833 0027310 178.3779 175.6011  2.00569245 17020
GPS-5
1 46826U 20078A   22282.33236066 -.00000029  00000-0  00000-0 0  9990
2 46826  54.4978 265.4717 0023739 191.7219 332.0486  2.00565125 14491
GPS-6
1 48859U 21054A   22282.59771778 -.00000106  00000-0  00000+0 0  9990
2 48859  55.2363  26.4589 0008184 201.2787 339.1626  2.00566747  9738